{"fetched_at":"2026-03-29T16:36:15Z","count":15609,"tles":[{"name":"STARLINK-31889","line1":"1 59847U 24097N   26087.92472448 -.00000630  00000+0 -13368-4 0  9993","line2":"2 59847  43.0016 166.1531 0000964 256.9592 103.1152 15.27576242104851","category":"Starlink"}]}