{
  "norad_id": 59847,
  "name": "STARLINK-31889",
  "history": [
    {
      "epoch": "2026-03-28T22:11:36.195072",
      "apogee_km": 483.72176829108685,
      "perigee_km": 482.3989294422254,
      "latitude_deg": 20.303238569042595,
      "longitude_deg": -106.52644992014393,
      "semi_major_axis_km": 6861.197348866655,
      "eccentricity": 9.64e-05,
      "inclination_deg": 43.0016,
      "raan_deg": 166.1531,
      "arg_perigee_deg": 256.9592,
      "mean_anomaly_deg": 103.1152,
      "mean_motion_rev_day": 15.27576242
    }
  ]
}